ARCTURUS                
1 56371U 23060B   26087.63042039 -.00000080  00000+0  00000+0 0  9990
2 56371   2.5677  80.9515 0001026 305.8506  98.6611  1.00272256 10653
